[{"OBJECT_NAME":"EXCITE","OBJECT_ID":"2018-099BP","EPOCH":"2026-03-09T16:45:15.060672","MEAN_MOTION":15.06036758,"ECCENTRICITY":0.0017626,"INCLINATION":97.4107,"RA_OF_ASC_NODE":111.3606,"ARG_OF_PERICENTER":337.4818,"MEAN_ANOMALY":22.5634,"EPHEMERIS_TYPE":0,"CLASSIFICATION_TYPE":"U","NORAD_CAT_ID":43819,"ELEMENT_SET_NO":999,"REV_AT_EPOCH":39677,"BSTAR":0.00019631388,"MEAN_MOTION_DOT":2.813e-5,"MEAN_MOTION_DDOT":0},{"OBJECT_NAME":"STARLINK-4768","OBJECT_ID":"2022-111AK","EPOCH":"2026-03-09T17:18:26.016480","MEAN_MOTION":15.08818156,"ECCENTRICITY":0.00010839,"INCLINATION":53.2163,"RA_OF_ASC_NODE":248.8234,"ARG_OF_PERICENTER":95.6268,"MEAN_ANOMALY":264.4848,"EPHEMERIS_TYPE":0,"CLASSIFICATION_TYPE":"U","NORAD_CAT_ID":53806,"ELEMENT_SET_NO":999,"REV_AT_EPOCH":19403,"BSTAR":-0.00012766358,"MEAN_MOTION_DOT":-2.318e-5,"MEAN_MOTION_DDOT":0}]
