EXCITE                  
1 43819U 18099BP  26068.69809098  .00002813  00000+0  19631-3 0  9999
2 43819  97.4107 111.3606 0017626 337.4818  22.5634 15.06036758396774
STARLINK-4768           
1 53806U 22111AK  26068.72113445 -.00002318  00000+0 -12766-3 0  9998
2 53806  53.2163 248.8234 0001084  95.6268 264.4848 15.08818156194030
